[{"OBJECT_NAME":"ECHOSTAR 25","OBJECT_ID":"2026-045A","EPOCH":"2026-03-23T17:47:52.658880","MEAN_MOTION":1.00483616,"ECCENTRICITY":0.00014346,"INCLINATION":0.0662,"RA_OF_ASC_NODE":279.4493,"ARG_OF_PERICENTER":192.5501,"MEAN_ANOMALY":206.5579,"EPHEMERIS_TYPE":0,"CLASSIFICATION_TYPE":"U","NORAD_CAT_ID":68126,"ELEMENT_SET_NO":999,"REV_AT_EPOCH":13,"BSTAR":0,"MEAN_MOTION_DOT":3.1e-7,"MEAN_MOTION_DDOT":0},{"OBJECT_NAME":"ICOR SV","OBJECT_ID":"2026-046A","EPOCH":"2026-03-24T13:23:56.574816","MEAN_MOTION":15.90513368,"ECCENTRICITY":0.01150381,"INCLINATION":123.0775,"RA_OF_ASC_NODE":273.134,"ARG_OF_PERICENTER":211.4759,"MEAN_ANOMALY":147.9392,"EPHEMERIS_TYPE":0,"CLASSIFICATION_TYPE":"U","NORAD_CAT_ID":68127,"ELEMENT_SET_NO":999,"REV_AT_EPOCH":196,"BSTAR":0.00061522842,"MEAN_MOTION_DOT":0.00355749,"MEAN_MOTION_DDOT":5.9028121e-5},{"OBJECT_NAME":"FIREFLY ALPHA R/B","OBJECT_ID":"2026-046B","EPOCH":"2026-03-24T06:43:44.266944","MEAN_MOTION":15.56868977,"ECCENTRICITY":0.0015298,"INCLINATION":123.0939,"RA_OF_ASC_NODE":269.4387,"ARG_OF_PERICENTER":9.5402,"MEAN_ANOMALY":350.5946,"EPHEMERIS_TYPE":0,"CLASSIFICATION_TYPE":"U","NORAD_CAT_ID":68128,"ELEMENT_SET_NO":999,"REV_AT_EPOCH":191,"BSTAR":0.00050798,"MEAN_MOTION_DOT":0.00036973,"MEAN_MOTION_DDOT":0},{"OBJECT_NAME":"GUOWANG GROUP 20 OBJECT A","OBJECT_ID":"2026-047A","EPOCH":"2026-03-24T11:18:42.584544","MEAN_MOTION":14.00120126,"ECCENTRICITY":4.55e-5,"INCLINATION":50.0057,"RA_OF_ASC_NODE":10.2567,"ARG_OF_PERICENTER":280.6416,"MEAN_ANOMALY":79.4436,"EPHEMERIS_TYPE":0,"CLASSIFICATION_TYPE":"U","NORAD_CAT_ID":68129,"ELEMENT_SET_NO":999,"REV_AT_EPOCH":164,"BSTAR":2.5604904e-5,"MEAN_MOTION_DOT":-1.12e-6,"MEAN_MOTION_DDOT":0},{"OBJECT_NAME":"GUOWANG GROUP 20 OBJECT B","OBJECT_ID":"2026-047B","EPOCH":"2026-03-24T11:16:10.999200","MEAN_MOTION":14.00458019,"ECCENTRICITY":2.294e-5,"INCLINATION":50.006,"RA_OF_ASC_NODE":10.248,"ARG_OF_PERICENTER":293.0264,"MEAN_ANOMALY":67.0614,"EPHEMERIS_TYPE":0,"CLASSIFICATION_TYPE":"U","NORAD_CAT_ID":68130,"ELEMENT_SET_NO":999,"REV_AT_EPOCH":163,"BSTAR":4.9171838e-5,"MEAN_MOTION_DOT":-7.7e-7,"MEAN_MOTION_DDOT":0},{"OBJECT_NAME":"GUOWANG GROUP 20 OBJECT C","OBJECT_ID":"2026-047C","EPOCH":"2026-03-23T21:32:20.729760","MEAN_MOTION":14.00819949,"ECCENTRICITY":0.0001695,"INCLINATION":50.0005,"RA_OF_ASC_NODE":12.534,"ARG_OF_PERICENTER":156.149,"MEAN_ANOMALY":203.9492,"EPHEMERIS_TYPE":0,"CLASSIFICATION_TYPE":"U","NORAD_CAT_ID":68131,"ELEMENT_SET_NO":999,"REV_AT_EPOCH":156,"BSTAR":2.2265347e-5,"MEAN_MOTION_DOT":-1.17e-6,"MEAN_MOTION_DDOT":0},{"OBJECT_NAME":"GUOWANG GROUP 20 OBJECT D","OBJECT_ID":"2026-047D","EPOCH":"2026-03-24T14:35:39.447744","MEAN_MOTION":14.01110084,"ECCENTRICITY":2.212e-5,"INCLINATION":50.0037,"RA_OF_ASC_NODE":9.6473,"ARG_OF_PERICENTER":23.0477,"MEAN_ANOMALY":337.0436,"EPHEMERIS_TYPE":0,"CLASSIFICATION_TYPE":"U","NORAD_CAT_ID":68132,"ELEMENT_SET_NO":999,"REV_AT_EPOCH":165,"BSTAR":3.0364787e-5,"MEAN_MOTION_DOT":-1.05e-6,"MEAN_MOTION_DDOT":0},{"OBJECT_NAME":"GUOWANG GROUP 20 OBJECT E","OBJECT_ID":"2026-047E","EPOCH":"2026-03-22T07:51:30.148128","MEAN_MOTION":14.03282701,"ECCENTRICITY":0.00018453,"INCLINATION":50.0037,"RA_OF_ASC_NODE":18.9087,"ARG_OF_PERICENTER":286.6306,"MEAN_ANOMALY":73.4395,"EPHEMERIS_TYPE":0,"CLASSIFICATION_TYPE":"U","NORAD_CAT_ID":68133,"ELEMENT_SET_NO":999,"REV_AT_EPOCH":134,"BSTAR":2.1599298e-5,"MEAN_MOTION_DOT":-1.17e-6,"MEAN_MOTION_DDOT":0},{"OBJECT_NAME":"GUOWANG GROUP 20 OBJECT F","OBJECT_ID":"2026-047F","EPOCH":"2026-03-22T12:56:16.652832","MEAN_MOTION":14.03853988,"ECCENTRICITY":0.00015499,"INCLINATION":50.0098,"RA_OF_ASC_NODE":18.0376,"ARG_OF_PERICENTER":290.5042,"MEAN_ANOMALY":69.5697,"EPHEMERIS_TYPE":0,"CLASSIFICATION_TYPE":"U","NORAD_CAT_ID":68134,"ELEMENT_SET_NO":999,"REV_AT_EPOCH":136,"BSTAR":8.0291987e-5,"MEAN_MOTION_DOT":-2.4e-7,"MEAN_MOTION_DDOT":0},{"OBJECT_NAME":"GUOWANG GROUP 20 OBJECT G","OBJECT_ID":"2026-047G","EPOCH":"2026-03-22T14:39:59.859936","MEAN_MOTION":14.03554926,"ECCENTRICITY":0.00023781,"INCLINATION":50.013,"RA_OF_ASC_NODE":17.7516,"ARG_OF_PERICENTER":303.3923,"MEAN_ANOMALY":56.6754,"EPHEMERIS_TYPE":0,"CLASSIFICATION_TYPE":"U","NORAD_CAT_ID":68135,"ELEMENT_SET_NO":999,"REV_AT_EPOCH":138,"BSTAR":0.00011610707,"MEAN_MOTION_DOT":3.2e-7,"MEAN_MOTION_DDOT":0},{"OBJECT_NAME":"GUOWANG GROUP 20 OBJECT H","OBJECT_ID":"2026-047H","EPOCH":"2026-03-23T21:23:31.171200","MEAN_MOTION":14.02326786,"ECCENTRICITY":0.0001735,"INCLINATION":50.0075,"RA_OF_ASC_NODE":12.5331,"ARG_OF_PERICENTER":306.0179,"MEAN_ANOMALY":54.0564,"EPHEMERIS_TYPE":0,"CLASSIFICATION_TYPE":"U","NORAD_CAT_ID":68136,"ELEMENT_SET_NO":999,"REV_AT_EPOCH":155,"BSTAR":3.1573e-5,"MEAN_MOTION_DOT":-1.02e-6,"MEAN_MOTION_DDOT":0},{"OBJECT_NAME":"GUOWANG GROUP 20 OBJECT J","OBJECT_ID":"2026-047J","EPOCH":"2026-03-23T21:21:21.697344","MEAN_MOTION":14.02259904,"ECCENTRICITY":1.75e-5,"INCLINATION":50.0081,"RA_OF_ASC_NODE":12.5219,"ARG_OF_PERICENTER":124.6965,"MEAN_ANOMALY":235.3956,"EPHEMERIS_TYPE":0,"CLASSIFICATION_TYPE":"U","NORAD_CAT_ID":68137,"ELEMENT_SET_NO":999,"REV_AT_EPOCH":156,"BSTAR":9.1454e-6,"MEAN_MOTION_DOT":-1.37e-6,"MEAN_MOTION_DDOT":0},{"OBJECT_NAME":"CZ-8A R/B","OBJECT_ID":"2026-047K","EPOCH":"2026-03-24T23:18:30.924864","MEAN_MOTION":14.12231003,"ECCENTRICITY":0.00447661,"INCLINATION":49.9541,"RA_OF_ASC_NODE":7.4809,"ARG_OF_PERICENTER":190.8358,"MEAN_ANOMALY":169.1589,"EPHEMERIS_TYPE":0,"CLASSIFICATION_TYPE":"U","NORAD_CAT_ID":68138,"ELEMENT_SET_NO":999,"REV_AT_EPOCH":171,"BSTAR":0.00010773424,"MEAN_MOTION_DOT":4.7e-7,"MEAN_MOTION_DDOT":0},{"OBJECT_NAME":"SHIYAN-30 03","OBJECT_ID":"2026-048A","EPOCH":"2026-03-24T23:09:54.602784","MEAN_MOTION":14.91701535,"ECCENTRICITY":0.00036574,"INCLINATION":35.0007,"RA_OF_ASC_NODE":52.5062,"ARG_OF_PERICENTER":327.214,"MEAN_ANOMALY":32.8337,"EPHEMERIS_TYPE":0,"CLASSIFICATION_TYPE":"U","NORAD_CAT_ID":68139,"ELEMENT_SET_NO":999,"REV_AT_EPOCH":178,"BSTAR":0.00021763023,"MEAN_MOTION_DOT":2.204e-5,"MEAN_MOTION_DDOT":0},{"OBJECT_NAME":"SHIYAN-30 04","OBJECT_ID":"2026-048B","EPOCH":"2026-03-24T23:10:58.265760","MEAN_MOTION":14.91711067,"ECCENTRICITY":0.00021617,"INCLINATION":34.9922,"RA_OF_ASC_NODE":52.5105,"ARG_OF_PERICENTER":325.2649,"MEAN_ANOMALY":34.7914,"EPHEMERIS_TYPE":0,"CLASSIFICATION_TYPE":"U","NORAD_CAT_ID":68140,"ELEMENT_SET_NO":999,"REV_AT_EPOCH":178,"BSTAR":0.00020844906,"MEAN_MOTION_DOT":2.111e-5,"MEAN_MOTION_DDOT":0},{"OBJECT_NAME":"CZ-2D R/B","OBJECT_ID":"2026-048C","EPOCH":"2026-03-25T00:06:07.848864","MEAN_MOTION":14.95547256,"ECCENTRICITY":0.00148967,"INCLINATION":35.13,"RA_OF_ASC_NODE":52.1601,"ARG_OF_PERICENTER":99.8083,"MEAN_ANOMALY":260.4308,"EPHEMERIS_TYPE":0,"CLASSIFICATION_TYPE":"U","NORAD_CAT_ID":68141,"ELEMENT_SET_NO":999,"REV_AT_EPOCH":179,"BSTAR":0.00013525112,"MEAN_MOTION_DOT":1.5e-5,"MEAN_MOTION_DDOT":0}]
